# Made by eph2tle, compiled Mar 12 2023 20:28:02
# Run at Wed Mar 15 12:00:26 2023
#
#    The following TLEs (Two-Line Elements) were generated by fitting
# a numerically-integrated ephemeris,  based on the orbit given below,
# to the SDP4/SGP4 models.  Each TLE is good for the interval between
# its epoch and the epoch of the subsequent TLE (usually one day).
# The maximum deviation between the numerically integrated ephemerides
# and the TLE-based ephemeris, in kilometers,  is given for each TLE
# as the "worst residual".
#
#    This fitting is done using the 'eph2tle' code packaged with Find_Orb.
# The code has details on how the TLEs were computed :
#
#    https://github.com/Bill-Gray/find_orb/eph2tle.cpp
#
#    Be warned:  the error given is that between the numerically
# integrated ephems and the TLE model.  There will usually be at
# least some additional difference between the ephems and the actual
# motion of the satellite,  especially if the ephemerides are based
# on a short arc.  If the following orbital elements say something
# like "[based on] 10 observations 2015 Jan. 1-13",  and the TLEs
# are for 2015 May,  the extrapolation may be tenuous at best.  If
# your application requires a specific level of accuracy,  you may
# want to contact me;  I can give you some idea as to the fit of the
# underlying data (and possibly TLEs based on newer data).
#
#   You can usually find the underlying observational data,  and the
# fitted orbit,  residuals,  ephemerides,  and sometimes some comments
# about the object,  among the pages listed at
#
#    https://www.projectpluto.com/pluto/mpecs/pseudo.htm
#
#    Also,  if you use a TLE outside the "correct" time range (between
# its MJD and that of the next TLE),  all bets are off.  I've carefully
# computed and minimized the worst error over the "correct" time frame,
# but the ephemeris may (or may not) diverge wildly outside of it.
#
# Ephem range: 59884.000000 60157.000000 1.000000
# Created Wed Mar 15 11:59:13 2023
# Ephemeris start:  1 Nov 2022  0:00:00
# Ephemeris end:    1 Aug 2023  0:00:00
# Times are all TDT
# Positions/velocities are in equatorial J2000
# Orbital elements:  ZTs0053 = A10Tqgl = A10SMtV
#    Perigee 2023 Feb 27.851658 +/- 0.00247 TT = 20:26:23.2 (JD 2460003.351658)
# A1: (108.7 +/- 2.8)e-7   A2: (3.66 +/- 3.64)e-8
# A3: (272.66 +/- 9.26)e-9 AU/day^2 [1/r^2]
# Epoch 2023 Feb 28.0 TT = JDT 2460003.5                           Find_Orb
# M  45.267090941 +/- 0.7             (J2000 equator)
# n 305.153243866 +/- 0.0261          Peri.   21.434834 +/- 0.20
# a 47161.92379 +/- 2.69              Node   343.505722 +/- 0.013
# e   0.73203993 +/- 0.000876         Incl.   31.584287 +/- 0.023
# P1698.79m/1.180d           H 31.46  G  0.15   U 10.3
# q 12637.51218 +/- 42    Q 81686.33539 +/- 36.7
# From 13 observations 2023 Feb. 15-Mar. 13; mean residual 1".528
#
# 1 NoradU COSPAR   Epoch.epoch     dn/dt/2  d2n/dt2/6 BSTAR    T El# C
# 2 NoradU Inclina RAAscNode Eccent  ArgPeri MeanAno  MeanMotion Rev# C

# Worst residual: 88.23 km
# MJD 59884.000000 (2022 Nov  1  0:00)
ZTs0053 = A10Tqgl = A10SMtV
1 79972U 23999ZZW 22305.49919926  .00000000  00000-0  00000-0 0 19000
2 79972 031.8028 347.1443 1433304 186.4746 261.0958 00.81823511    08

# Worst residual: 92.55 km
# MJD 59885.000000 (2022 Nov  2  0:00)
ZTs0053 = A10Tqgl = A10SMtV
1 79972U 23999ZZW 22306.49919926  .00000000  00000-0  00000-0 0 19001
2 79972 031.7971 347.1327 1361845 190.0363 193.5032 00.81886847    04

# Worst residual: 141.02 km
# MJD 59886.000000 (2022 Nov  3  0:00)
ZTs0053 = A10Tqgl = A10SMtV
1 79972U 23999ZZW 22307.49919926  .00000000  00000-0  00000-0 0 19002
2 79972 031.7838 347.1123 1315994 193.0512 126.3211 00.82261150    01

# Worst residual: 80.62 km
# MJD 59887.000000 (2022 Nov  4  0:00)
ZTs0053 = A10Tqgl = A10SMtV
1 79972U 23999ZZW 22308.49919926  .00000000  00000-0  00000-0 0 19003
2 79972 031.7714 347.0860 1241934 196.1946 058.6959 00.82512567    05

# Worst residual: 152.04 km
# MJD 59888.000000 (2022 Nov  5  0:00)
ZTs0053 = A10Tqgl = A10SMtV
1 79972U 23999ZZW 22309.49919926  .00000000  00000-0  00000-0 0 19004
2 79972 031.7518 347.0670 1187280 200.7254 349.5424 00.82342358    01

# Worst residual: 112.58 km
# MJD 59889.000000 (2022 Nov  6  0:00)
ZTs0053 = A10Tqgl = A10SMtV
1 79972U 23999ZZW 22310.49919926  .00000000  00000-0  00000-0 0 19006
2 79972 031.7382 347.0532 1140140 204.1966 281.7126 00.81947934    05

# Worst residual: 74.45 km
# MJD 59890.000000 (2022 Nov  7  0:00)
ZTs0053 = A10Tqgl = A10SMtV
1 79972U 23999ZZW 22311.49919926  .00000000  00000-0  00000-0 0 19007
2 79972 031.7287 347.0463 1074179 208.8899 212.9434 00.81790955    03

# Worst residual: 148.05 km
# MJD 59891.000000 (2022 Nov  8  0:00)
ZTs0053 = A10Tqgl = A10SMtV
1 79972U 23999ZZW 22312.49919926  .00000000  00000-0  00000-0 0 19008
2 79972 031.7254 347.0296 1047371 214.2098 143.5778 00.82058401    01

# Worst residual: 99.51 km
# MJD 59892.000000 (2022 Nov  9  0:00)
ZTs0053 = A10Tqgl = A10SMtV
1 79972U 23999ZZW 22313.49919926  .00000000  00000-0  00000-0 0 19009
2 79972 031.7203 347.0003 1008746 218.4842 074.9970 00.82430783    05

# Worst residual: 87.29 km
# MJD 59893.000000 (2022 Nov 10  0:00)
ZTs0053 = A10Tqgl = A10SMtV
1 79972U 23999ZZW 22314.49919926  .00000000  00000-0  00000-0 0 19000
2 79972 031.7101 346.9689 0969606 224.8288 004.0679 00.82481248    07

# Worst residual: 157.05 km
# MJD 59894.000000 (2022 Nov 11  0:00)
ZTs0053 = A10Tqgl = A10SMtV
1 79972U 23999ZZW 22315.49919926  .00000000  00000-0  00000-0 0 19001
2 79972 031.6973 346.9466 0961703 230.3585 294.0265 00.82144740    03

# Worst residual: 88.37 km
# MJD 59895.000000 (2022 Nov 12  0:00)
ZTs0053 = A10Tqgl = A10SMtV
1 79972U 23999ZZW 22316.49919926  .00000000  00000-0  00000-0 0 19002
2 79972 031.6881 346.9337 0931149 235.8091 224.3817 00.81816333    03

# Worst residual: 99.31 km
# MJD 59896.000000 (2022 Nov 13  0:00)
ZTs0053 = A10Tqgl = A10SMtV
1 79972U 23999ZZW 22317.49919926  .00000000  00000-0  00000-0 0 19003
2 79972 031.6867 346.9200 0930654 242.9404 153.2383 00.81881678    05

# Worst residual: 146.28 km
# MJD 59897.000000 (2022 Nov 14  0:00)
ZTs0053 = A10Tqgl = A10SMtV
1 79972U 23999ZZW 22318.49919926  .00000000  00000-0  00000-0 0 19004
2 79972 031.6879 346.8933 0944191 248.1730 083.8682 00.82256625    00

# Worst residual: 67.25 km
# MJD 59898.000000 (2022 Nov 15  0:00)
ZTs0053 = A10Tqgl = A10SMtV
1 79972U 23999ZZW 22319.49919926  .00000000  00000-0  00000-0 0 19005
2 79972 031.6855 346.8581 0940996 254.4838 013.0896 00.82515806    02

# Worst residual: 125.04 km
# MJD 59899.000000 (2022 Nov 16  0:00)
ZTs0053 = A10Tqgl = A10SMtV
1 79972U 23999ZZW 22320.49919926  .00000000  00000-0  00000-0 0 19007
2 79972 031.6801 346.8221 0974814 260.7840 302.1928 00.82345155    09

# Worst residual: 123.09 km
# MJD 59900.000000 (2022 Nov 17  0:00)
ZTs0053 = A10Tqgl = A10SMtV
1 79972U 23999ZZW 22321.49919926  .00000000  00000-0  00000-0 0 19008
2 79972 031.6705 346.8036 0996829 265.4154 233.2088 00.81951696    09

# Worst residual: 69.05 km
# MJD 59901.000000 (2022 Nov 18  0:00)
ZTs0053 = A10Tqgl = A10SMtV
1 79972U 23999ZZW 22322.49919926  .00000000  00000-0  00000-0 0 19009
2 79972 031.6728 346.7732 1023773 271.5650 162.9957 00.81793583    07

# Worst residual: 144.85 km
# MJD 59902.000000 (2022 Nov 19  0:00)
ZTs0053 = A10Tqgl = A10SMtV
1 79972U 23999ZZW 22323.49919926  .00000000  00000-0  00000-0 0 19000
2 79972 031.6685 346.7709 1083916 276.1755 094.3400 00.82057580    07

# Worst residual: 119.62 km
# MJD 59903.000000 (2022 Nov 20  0:00)
ZTs0053 = A10Tqgl = A10SMtV
1 79972U 23999ZZW 22324.49919926  .00000000  00000-0  00000-0 0 19001
2 79972 031.6726 346.7273 1118520 280.4037 025.8219 00.82423244    01

# Worst residual: 104.09 km
# MJD 59904.000000 (2022 Nov 21  0:00)
ZTs0053 = A10Tqgl = A10SMtV
1 79972U 23999ZZW 22325.49919926  .00000000  00000-0  00000-0 0 19002
2 79972 031.6778 346.6946 1176941 285.3535 316.2751 00.82476645    03

# Worst residual: 140.74 km
# MJD 59905.000000 (2022 Nov 22  0:00)
ZTs0053 = A10Tqgl = A10SMtV
1 79972U 23999ZZW 22326.49919926  .00000000  00000-0  00000-0 0 19003
2 79972 031.6745 346.6600 1240877 288.6080 248.5168 00.82152447    05

# Worst residual: 79.92 km
# MJD 59906.000000 (2022 Nov 23  0:00)
ZTs0053 = A10Tqgl = A10SMtV
1 79972U 23999ZZW 22327.49919926  .00000000  00000-0  00000-0 0 19004
2 79972 031.6749 346.6466 1282773 292.3461 180.5552 00.81817755    06

# Worst residual: 105.68 km
# MJD 59907.000000 (2022 Nov 24  0:00)
ZTs0053 = A10Tqgl = A10SMtV
1 79972U 23999ZZW 22328.49919926  .00000000  00000-0  00000-0 0 19005
2 79972 031.6806 346.6302 1361484 296.0447 112.8383 00.81876943    05

# Worst residual: 154.38 km
# MJD 59908.000000 (2022 Nov 25  0:00)
ZTs0053 = A10Tqgl = A10SMtV
1 79972U 23999ZZW 22329.49919926  .00000000  00000-0  00000-0 0 19006
2 79972 031.6900 346.5726 1428401 298.4710 046.2917 00.82250561    07

# Worst residual: 69.29 km
# MJD 59909.000000 (2022 Nov 26  0:00)
ZTs0053 = A10Tqgl = A10SMtV
1 79972U 23999ZZW 22330.49919926  .00000000  00000-0  00000-0 0 19008
2 79972 031.6970 346.5483 1490320 301.8491 338.4124 00.82509790    05

# Worst residual: 122.20 km
# MJD 59910.000000 (2022 Nov 27  0:00)
ZTs0053 = A10Tqgl = A10SMtV
1 79972U 23999ZZW 22331.49919926  .00000000  00000-0  00000-0 0 19009
2 79972 031.6996 346.5095 1577248 304.4155 271.2411 00.82349845    09

# Worst residual: 129.84 km
# MJD 59911.000000 (2022 Nov 28  0:00)
ZTs0053 = A10Tqgl = A10SMtV
1 79972U 23999ZZW 22332.49919926  .00000000  00000-0  00000-0 0 19000
2 79972 031.6962 346.4588 1634418 306.4518 204.8452 00.81955290    09

# Worst residual: 64.68 km
# MJD 59912.000000 (2022 Nov 29  0:00)
ZTs0053 = A10Tqgl = A10SMtV
1 79972U 23999ZZW 22333.49919926  .00000000  00000-0  00000-0 0 19001
2 79972 031.7072 346.4597 1706440 309.2742 137.9002 00.81790388    09
